OPS 6582 (TRANSIT 5B-5) 
1 00965U 64083D   21332.88147762  .00000043  00000+0  46899-4 0  9991
2 00965  90.0237 194.8639 0042815  95.0751 276.3125 13.56764178818326
OSCAR 7 (AO-7)          
1 07530U 74089B   21333.13543788 -.00000020  00000+0  16387-3 0  9994
2 07530 101.8787 307.5956 0012502  65.9460  66.4153 12.53651590152600
UOSAT 2 (UO-11)         
1 14781U 84021B   21332.92323090  .00000247  00000+0  36174-4 0  9992
2 14781  97.6027 324.7547 0006932 259.2901 100.7533 14.83372924 10311
NOAA 9                  
1 15427U 84123A   21332.68022352  .00000048  00000+0  47357-4 0  9997
2 15427  99.0179 297.2305 0015230  18.3155 154.4765 14.16154244908199
LUSAT (LO-19)           
1 20442U 90005G   21333.13118313  .00000046  00000+0  33438-4 0  9993
2 20442  98.7653 290.2713 0012496  41.1398 319.0725 14.33008204664473
ITAMSAT (IO-26)         
1 22826U 93061D   21333.00396461  .00000021  00000+0  25917-4 0  9990
2 22826  98.9024 354.4801 0007963 261.7331  98.2948 14.30474284470005
RADIO ROSTO (RS-15)     
1 23439U 94085A   21332.95719866 -.00000037  00000+0  15882-3 0  9996
2 23439  64.8126 109.8968 0165156 306.7882  51.7981 11.27570432108887
JAS-2 (FO-29)           
1 24278U 96046B   21333.12217404 -.00000011  00000+0  21375-4 0  9995
2 24278  98.5454  19.1167 0351313  82.9584 281.1367 13.53107981248760
NOAA 15                 
1 25338U 98030A   21333.17998909  .00000063  00000+0  44745-4 0  9991
2 25338  98.6671   0.1114 0010834 156.2424 203.9258 14.26072595224724
TECHSAT 1B (GO-32)      
1 25397U 98043D   21333.13848353  .00000014  00000+0  25672-4 0  9997
2 25397  98.7917 278.3760 0001205  18.9563 341.1660 14.23722952215143
ISS (ZARYA)             
1 25544U 98067A   21333.16900184  .00006391  00000+0  12532-3 0  9995
2 25544  51.6441 246.9541 0004360 253.6819 257.9807 15.48704332314161
ORSTED                  
1 25635U 99008B   21332.45459543  .00000180  00000+0  49657-4 0  9990
2 25635  96.4812 239.0731 0140144 102.4951 259.1967 14.48342923201185
PHASE 3D (AO-40)        
1 26609U 00072B   21332.13346818 -.00000289  00000+0  00000+0 0  9995
2 26609   8.6991 301.9844 7973145 312.8136   3.4146  1.25588869 96765
PCSAT (NO-44)           
1 26931U 01043C   21332.95569677 -.00000001  00000+0  31467-4 0  9990
2 26931  67.0508 215.8840 0005930 278.9594  81.0836 14.30645355 52726
SAUDISAT 1C (SO-50)     
1 27607U 02058C   21332.89904995  .00000106  00000+0  35616-4 0  9992
2 27607  64.5540 195.4428 0061055 335.9850  23.8406 14.75838120 18776
CUTE-1 (CO-55)          
1 27844U 03031E   21332.45476716  .00000114  00000+0  70712-4 0  9999
2 27844  98.6808 338.1864 0009293 329.5207  30.5430 14.22353719955292
CUBESAT XI-IV (CO-57)   
1 27848U 03031J   21332.98958124  .00000082  00000+0  56938-4 0  9997
2 27848  98.6859 339.2644 0009388 342.3353  17.7497 14.21924849955220
MOZHAYETS 4 (RS-22)     
1 27939U 03042A   21333.23593257  .00000251  00000+0  53436-4 0  9999
2 27939  98.1641 109.4212 0014141 118.3847 241.8794 14.67067341971688
INMARSAT 4-F1           
1 28628U 05009A   21332.68451983 -.00000244  00000+0  00000+0 0  9994
2 28628   3.4708  32.8640 0002753 221.8376 203.0303  1.00270634 61011
NOAA 18                 
1 28654U 05018A   21333.19408580  .00000108  00000+0  82648-4 0  9996
2 28654  98.9760  38.5614 0014494 173.7524 186.3831 14.12661508851798
CUBESAT XI-V            
1 28895U 05043F   21332.80463942  .00000269  00000+0  60165-4 0  9999
2 28895  98.0812 102.6836 0017676  55.8584 304.4292 14.64013714858286
METOP-A                 
1 29499U 06044A   21333.24856088  .00000329  00000+0  59868-4 0  9993
2 29499  98.4803   6.2723 0183488 276.6226 207.2159 14.63538183784186
CARTOSAT-2 (IRS-P7)     
1 29710U 07001B   21333.19574456  .00004831  00000+0  14278-3 0  9990
2 29710  97.8690  63.2576 0166148  36.4297 324.8109 15.22883507805704
FALCONSAT-3             
1 30776U 07006E   21332.70926255  .00010318  00000+0  22727-3 0  9998
2 30776  35.4331 122.9969 0002970 331.2690  28.7875 15.43173136818473
CAPE-1                  
1 31130U 07012P   21332.07863744  .00000206  00000+0  53949-4 0  9999
2 31130  98.2493 269.3465 0095184 196.5870 163.2209 14.56785415775775
CARTOSAT-2A             
1 32783U 08021A   21333.18329283 -.00000060  00000+0 -10648-5 0  9993
2 32783  97.9856  30.1887 0014120  94.1046 266.1793 14.78651656733420
CUTE-1.7+APD II (CO-65) 
1 32785U 08021C   21332.72700626  .00000594  00000+0  68921-4 0  9994
2 32785  97.6322 305.3873 0012938 172.1915 187.9507 14.88907319736614
COMPASS-1               
1 32787U 08021E   21332.79073283  .00001308  00000+0  12614-3 0  9996
2 32787  97.5444 317.1478 0013804  97.6076 262.6713 14.94471730738076
AAUSAT-II               
1 32788U 08021F   21332.92357359  .00001820  00000+0  16705-3 0  9995
2 32788  97.5178 320.8289 0013298  79.0795 281.1922 14.95975061738447
DELFI-C3 (DO-64)        
1 32789U 08021G   21333.02107304  .00003792  00000+0  23722-3 0  9998
2 32789  97.3621   2.0010 0009880 300.1175  59.9075 15.09953083741756
SEEDS II (CO-66)        
1 32791U 08021J   21333.19544199  .00000802  00000+0  85050-4 0  9998
2 32791  97.5896 311.5735 0014152 132.6754 227.5660 14.91672022737418
YUBILEINY (RS-30)       
1 32953U 08025A   21333.05709253  .00000021  00000+0  80971-4 0  9991
2 32953  82.5020 308.5561 0019416 341.7206  18.3182 12.43105997613434
FENGYUN 3A              
1 32958U 08026A   21333.17047356  .00000035  00000+0  36729-4 0  9996
2 32958  98.4743 299.3192 0007721 239.4201 120.6214 14.18677235699933
PRISM (HITOMI)          
1 33493U 09002B   21332.86417165  .00001764  00000+0  15414-3 0  9997
2 33493  98.2095 303.5600 0016269 102.4875 257.8167 14.98111514698931
STARS (KUKAI)           
1 33498U 09002G   21332.95366078  .00000438  00000+0  65867-4 0  9993
2 33498  98.1901 216.3375 0010853 170.6088 189.5327 14.79497833692200
KKS-1 (KISEKI)          
1 33499U 09002H   21333.23838794  .00000273  00000+0  47755-4 0  9998
2 33499  98.2426 206.6490 0008000 230.4302 129.6201 14.75744744691149
NOAA 19                 
1 33591U 09005A   21333.17342676  .00000060  00000+0  57485-4 0  9991
2 33591  99.1716 357.8719 0014377  33.7967 326.4117 14.12511292660175
SWISSCUBE               
1 35932U 09051B   21333.01525490  .00000241  00000+0  65027-4 0  9995
2 35932  98.5866 178.1165 0006752 308.6738  51.3855 14.56622797646956
BEESAT-1                
1 35933U 09051C   21333.04366959  .00000206  00000+0  57035-4 0  9993
2 35933  98.5817 179.8938 0005116 325.3722  34.7141 14.56669691647072
ITUPSAT1                
1 35935U 09051E   21332.87125264  .00000195  00000+0  55756-4 0  9992
2 35935  98.5919 179.8198 0007455 325.0728  34.9979 14.55795679646699
XIWANG-1 (HOPE-1)       
1 36122U 09072B   21333.22983382 -.00000040  00000+0  76243-5 0  9992
2 36122 100.1555 307.2096 0008133  82.6214 277.5823 13.16364101574576
CARTOSAT-2B             
1 36795U 10035A   21333.15356080  .00000147  00000+0  27119-4 0  9994
2 36795  97.9804  30.3713 0014043 165.5191 194.6431 14.78665025614469
TISAT 1                 
1 36799U 10035E   21332.77662624  .00001008  00000+0  10542-3 0  9997
2 36799  98.1963 170.2351 0012844  39.3403 320.8745 14.91999831617830
FENGYUN 3B              
1 37214U 10059A   21333.24104698  .00000017  00000+0  32243-4 0  9993
2 37214  99.0890 330.5889 0016527 204.5572 155.4823 14.16008570572651
JUGNU                   
1 37839U 11058B   21333.25694590  .00000338  00000+0  38181-4 0  9995
2 37839  19.9622 309.6944 0019159 109.3097  27.2787 14.12736431523904
SRMSAT                  
1 37841U 11058D   21332.82682169  .00000312  00000+0  26186-4 0  9993
2 37841  19.9735  27.5827 0011735 300.5941 217.6929 14.10713393522871
M-CUBED & EXP-1 PRIME   
1 37855U 11061F   21332.88540250  .00004123  00000+0  19929-3 0  9992
2 37855 101.7243 341.8253 0163289 301.3469  57.1852 15.08824703550960
HORYU-2                 
1 38340U 12025D   21333.13797779  .00000397  00000+0  65106-4 0  9990
2 38340  98.2168  43.4273 0012271 144.6429 215.5596 14.76177467513091
METOP-B                 
1 38771U 12049A   21333.16052792  .00000023  00000+0  30366-4 0  9992
2 38771  98.6949  30.9828 0000382 181.6384 236.8655 14.21495048477277
SARAL                   
1 39086U 13009A   21333.14250320  .00000012  00000+0  20522-4 0  9995
2 39086  98.5440 156.7496 0001951 110.5209 249.6184 14.32043093457818
AAUSAT 3                
1 39087U 13009B   21332.82178401  .00000171  00000+0  73425-4 0  9995
2 39087  98.4102 172.2984 0012624 141.3625 218.8458 14.36004213458785
STRAND-1                
1 39090U 13009E   21332.38245272  .00000169  00000+0  74119-4 0  9999
2 39090  98.4132 170.6248 0009654 144.7207 215.4619 14.35206888458557
BRITE-AUSTRIA           
1 39091U 13009F   21332.78355083  .00000035  00000+0  27282-4 0  9997
2 39091  98.4138 170.1650 0011000 150.6435 209.5371 14.35212567458643
UNIBRITE                
1 39092U 13009G   21332.78722165  .00000030  00000+0  25461-4 0  9999
2 39092  98.4169 169.8976 0009983 145.3338 214.8500 14.35083944458608
SOMP                    
1 39134U 13015E   21332.79286792  .00005037  00000+0  21513-3 0  9990
2 39134  64.8645 357.6241 0024740 309.6549  50.2397 15.23786715476240
BEESAT-3                
1 39135U 13015F   21332.88816052  .00002973  00000+0  14456-3 0  9993
2 39135  64.8686  29.3028 0023355 323.0179  36.9337 15.20300157475593
BEESAT-2                
1 39136U 13015G   21332.89306290  .00003016  00000+0  15001-3 0  9999
2 39136  64.8769  36.3912 0014052 246.4560 113.5092 15.19599399475419
NEE-01 PEGASO           
1 39151U 13018B   21333.20982380  .00000478  00000+0  69275-4 0  9997
2 39151  97.9863  74.7773 0017018 179.9677 180.1539 14.80478958464051
CUBEBUG-1 (CAPITAN BETO)
1 39153U 13018D   21333.22921160  .00000602  00000+0  84343-4 0  9992
2 39153  98.0040  78.5321 0017002 175.0272 185.1112 14.81084741464195
